[{"OBJECT_NAME":"STARLINK-5856","OBJECT_ID":"2023-037A","EPOCH":"2026-03-09T21:23:38.555808","MEAN_MOTION":14.98331752,"ECCENTRICITY":0.00025085,"INCLINATION":69.9994,"RA_OF_ASC_NODE":304.0996,"ARG_OF_PERICENTER":272.5008,"MEAN_ANOMALY":87.5864,"EPHEMERIS_TYPE":0,"CLASSIFICATION_TYPE":"U","NORAD_CAT_ID":55914,"ELEMENT_SET_NO":999,"REV_AT_EPOCH":16420,"BSTAR":-2.2290122e-5,"MEAN_MOTION_DOT":-3.59e-6,"MEAN_MOTION_DDOT":0},{"OBJECT_NAME":"ION SCV-022","OBJECT_ID":"2025-276S","EPOCH":"2026-03-09T17:53:05.489952","MEAN_MOTION":14.97347265,"ECCENTRICITY":0.00045393,"INCLINATION":97.5376,"RA_OF_ASC_NODE":142.978,"ARG_OF_PERICENTER":154.7099,"MEAN_ANOMALY":205.4346,"EPHEMERIS_TYPE":0,"CLASSIFICATION_TYPE":"U","NORAD_CAT_ID":66682,"ELEMENT_SET_NO":999,"REV_AT_EPOCH":1519,"BSTAR":0.00017276803,"MEAN_MOTION_DOT":1.95e-5,"MEAN_MOTION_DDOT":0}]
